STARLINK-32238          
1 61661U 24193A   26068.49174349  .00000324  00000+0  23050-4 0  9994
2 61661  53.1598  92.1191 0001034  83.4153 276.6966 15.30192435 76499
SCS-01 D                
1 63985U 25100D   26068.75607686  .00032471  00000+0  10528-2 0  9990
2 63985  97.3730 145.4097 0006346 266.2302  93.8214 15.31902149 45621
